STARLINK-36674          
1 67661U 26022P   26056.06869281  .00310776  00000+0  20029-2 0  9995
2 67661  97.2849  89.4458 0001609  17.5579 342.5741 15.75266259  3563
STARLINK-36700          
1 67662U 26022Q   26056.06657127  .00230895  00000+0  15019-2 0  9996
2 67662  97.2845  89.4486 0001108  88.6407 271.4985 15.75274777  3568
STARLINK-36675          
1 67663U 26022R   26056.06798084  .00222188  00000+0  14485-2 0  9997
2 67663  97.2845  89.4467 0000913  92.8510 267.2860 15.75246824  3560
STARLINK-36404          
1 67664U 26022S   26056.06480695  .00211081  00000+0  13767-2 0  9996
2 67664  97.2848  89.4500 0001455 120.8748 239.2660 15.75267444  3567
STARLINK-36399          
1 67665U 26022T   26056.06410934  .00280594  00000+0  18125-2 0  9994
2 67665  97.2851  89.4518 0001940 116.0558 244.0907 15.75298011  3568
STARLINK-36365          
1 67666U 26022U   26056.06269199  .00152756  00000+0  10043-2 0  9999
2 67666  97.2854  89.4536 0001024  37.8316 322.3021 15.75246778  3567
STARLINK-36622          
1 67667U 26022V   26056.06092803  .00183206  00000+0  11994-2 0  9996
2 67667  97.2849  89.4560 0000909  38.4712 321.6618 15.75258832  3565
STARLINK-36625          
1 67668U 26022W   26056.37714978  .00119851  00000+0  79188-3 0  9990
2 67668  97.2853  89.7908 0001380 106.0305 254.1113 15.75227834  3618
STARLINK-36639          
1 67669U 26022X   26056.05774911  .00308610  00000+0  19860-2 0  9992
2 67669  97.2848  89.4594 0002402 136.7073 223.4381 15.75306624  3564
STARLINK-36596          
1 67670U 26022Y   26056.05598606  .00212380  00000+0  13846-2 0  9995
2 67670  97.2851  89.4617 0000773  90.3591 269.7763 15.75274092  3565
STARLINK-36297          
1 67671U 26022Z   26056.05386596  .00206716  00000+0  13490-2 0  9990
2 67671  97.2846  89.4650 0001555 120.0154 240.1265 15.75267669  3564
STARLINK-36616          
1 67672U 26022AA  26056.05527895  .00113426  00000+0  75007-3 0  9998
2 67672  97.2846  89.4630 0000957   8.1739 351.9542 15.75227226  3567
