CCSDS_OMM_VERS = 2.0
CREATION_DATE  = 
ORIGINATOR     = 

OBJECT_NAME    = STARLINK-36674
OBJECT_ID      = 2026-022P
CENTER_NAME    = EARTH
REF_FRAME      = TEME
TIME_SYSTEM    = UTC
MEAN_ELEMENT_THEORY = SGP/SGP4

EPOCH          = 2026-02-25T01:38:55.058784
MEAN_MOTION    = 15.75266259
ECCENTRICITY   = .00016094
INCLINATION    = 97.2849
RA_OF_ASC_NODE = 89.4458
ARG_OF_PERICENTER = 17.5579
MEAN_ANOMALY   = 342.5741

EPHEMERIS_TYPE = 0
CLASSIFICATION_TYPE = U
NORAD_CAT_ID   = 67661
ELEMENT_SET_NO = 999
REV_AT_EPOCH   = 356
BSTAR          = .20029306E-2
MEAN_MOTION_DOT = .310776E-2
MEAN_MOTION_DDOT = 0

CCSDS_OMM_VERS = 2.0
CREATION_DATE  = 
ORIGINATOR     = 

OBJECT_NAME    = STARLINK-36700
OBJECT_ID      = 2026-022Q
CENTER_NAME    = EARTH
REF_FRAME      = TEME
TIME_SYSTEM    = UTC
MEAN_ELEMENT_THEORY = SGP/SGP4

EPOCH          = 2026-02-25T01:35:51.757728
MEAN_MOTION    = 15.75274777
ECCENTRICITY   = .00011083
INCLINATION    = 97.2845
RA_OF_ASC_NODE = 89.4486
ARG_OF_PERICENTER = 88.6407
MEAN_ANOMALY   = 271.4985

EPHEMERIS_TYPE = 0
CLASSIFICATION_TYPE = U
NORAD_CAT_ID   = 67662
ELEMENT_SET_NO = 999
REV_AT_EPOCH   = 356
BSTAR          = .15018952E-2
MEAN_MOTION_DOT = .230895E-2
MEAN_MOTION_DDOT = 0

CCSDS_OMM_VERS = 2.0
CREATION_DATE  = 
ORIGINATOR     = 

OBJECT_NAME    = STARLINK-36675
OBJECT_ID      = 2026-022R
CENTER_NAME    = EARTH
REF_FRAME      = TEME
TIME_SYSTEM    = UTC
MEAN_ELEMENT_THEORY = SGP/SGP4

EPOCH          = 2026-02-25T01:37:53.544576
MEAN_MOTION    = 15.75246824
ECCENTRICITY   = .00009139
INCLINATION    = 97.2845
RA_OF_ASC_NODE = 89.4467
ARG_OF_PERICENTER = 92.8510
MEAN_ANOMALY   = 267.2860

EPHEMERIS_TYPE = 0
CLASSIFICATION_TYPE = U
NORAD_CAT_ID   = 67663
ELEMENT_SET_NO = 999
REV_AT_EPOCH   = 356
BSTAR          = .14485231E-2
MEAN_MOTION_DOT = .222188E-2
MEAN_MOTION_DDOT = 0

CCSDS_OMM_VERS = 2.0
CREATION_DATE  = 
ORIGINATOR     = 

OBJECT_NAME    = STARLINK-36404
OBJECT_ID      = 2026-022S
CENTER_NAME    = EARTH
REF_FRAME      = TEME
TIME_SYSTEM    = UTC
MEAN_ELEMENT_THEORY = SGP/SGP4

EPOCH          = 2026-02-25T01:33:19.320480
MEAN_MOTION    = 15.75267444
ECCENTRICITY   = .00014559
INCLINATION    = 97.2848
RA_OF_ASC_NODE = 89.4500
ARG_OF_PERICENTER = 120.8748
MEAN_ANOMALY   = 239.2660

EPHEMERIS_TYPE = 0
CLASSIFICATION_TYPE = U
NORAD_CAT_ID   = 67664
ELEMENT_SET_NO = 999
REV_AT_EPOCH   = 356
BSTAR          = .13767347E-2
MEAN_MOTION_DOT = .211081E-2
MEAN_MOTION_DDOT = 0

CCSDS_OMM_VERS = 2.0
CREATION_DATE  = 
ORIGINATOR     = 

OBJECT_NAME    = STARLINK-36399
OBJECT_ID      = 2026-022T
CENTER_NAME    = EARTH
REF_FRAME      = TEME
TIME_SYSTEM    = UTC
MEAN_ELEMENT_THEORY = SGP/SGP4

EPOCH          = 2026-02-25T01:32:19.046976
MEAN_MOTION    = 15.75298011
ECCENTRICITY   = .00019407
INCLINATION    = 97.2851
RA_OF_ASC_NODE = 89.4518
ARG_OF_PERICENTER = 116.0558
MEAN_ANOMALY   = 244.0907

EPHEMERIS_TYPE = 0
CLASSIFICATION_TYPE = U
NORAD_CAT_ID   = 67665
ELEMENT_SET_NO = 999
REV_AT_EPOCH   = 356
BSTAR          = .181247E-2
MEAN_MOTION_DOT = .280594E-2
MEAN_MOTION_DDOT = 0

CCSDS_OMM_VERS = 2.0
CREATION_DATE  = 
ORIGINATOR     = 

OBJECT_NAME    = STARLINK-36365
OBJECT_ID      = 2026-022U
CENTER_NAME    = EARTH
REF_FRAME      = TEME
TIME_SYSTEM    = UTC
MEAN_ELEMENT_THEORY = SGP/SGP4

EPOCH          = 2026-02-25T01:30:16.587936
MEAN_MOTION    = 15.75246778
ECCENTRICITY   = .00010241
INCLINATION    = 97.2854
RA_OF_ASC_NODE = 89.4536
ARG_OF_PERICENTER = 37.8316
MEAN_ANOMALY   = 322.3021

EPHEMERIS_TYPE = 0
CLASSIFICATION_TYPE = U
NORAD_CAT_ID   = 67666
ELEMENT_SET_NO = 999
REV_AT_EPOCH   = 356
BSTAR          = .10043366E-2
MEAN_MOTION_DOT = .152756E-2
MEAN_MOTION_DDOT = 0

CCSDS_OMM_VERS = 2.0
CREATION_DATE  = 
ORIGINATOR     = 

OBJECT_NAME    = STARLINK-36622
OBJECT_ID      = 2026-022V
CENTER_NAME    = EARTH
REF_FRAME      = TEME
TIME_SYSTEM    = UTC
MEAN_ELEMENT_THEORY = SGP/SGP4

EPOCH          = 2026-02-25T01:27:44.181792
MEAN_MOTION    = 15.75258832
ECCENTRICITY   = .00009096
INCLINATION    = 97.2849
RA_OF_ASC_NODE = 89.4560
ARG_OF_PERICENTER = 38.4712
MEAN_ANOMALY   = 321.6618

EPHEMERIS_TYPE = 0
CLASSIFICATION_TYPE = U
NORAD_CAT_ID   = 67667
ELEMENT_SET_NO = 999
REV_AT_EPOCH   = 356
BSTAR          = .11994279E-2
MEAN_MOTION_DOT = .183206E-2
MEAN_MOTION_DDOT = 0

CCSDS_OMM_VERS = 2.0
CREATION_DATE  = 
ORIGINATOR     = 

OBJECT_NAME    = STARLINK-36625
OBJECT_ID      = 2026-022W
CENTER_NAME    = EARTH
REF_FRAME      = TEME
TIME_SYSTEM    = UTC
MEAN_ELEMENT_THEORY = SGP/SGP4

EPOCH          = 2026-02-25T09:03:05.740992
MEAN_MOTION    = 15.75227834
ECCENTRICITY   = .000138
INCLINATION    = 97.2853
RA_OF_ASC_NODE = 89.7908
ARG_OF_PERICENTER = 106.0305
MEAN_ANOMALY   = 254.1113

EPHEMERIS_TYPE = 0
CLASSIFICATION_TYPE = U
NORAD_CAT_ID   = 67668
ELEMENT_SET_NO = 999
REV_AT_EPOCH   = 361
BSTAR          = .79188E-3
MEAN_MOTION_DOT = .119851E-2
MEAN_MOTION_DDOT = 0

CCSDS_OMM_VERS = 2.0
CREATION_DATE  = 
ORIGINATOR     = 

OBJECT_NAME    = STARLINK-36639
OBJECT_ID      = 2026-022X
CENTER_NAME    = EARTH
REF_FRAME      = TEME
TIME_SYSTEM    = UTC
MEAN_ELEMENT_THEORY = SGP/SGP4

EPOCH          = 2026-02-25T01:23:09.523104
MEAN_MOTION    = 15.75306624
ECCENTRICITY   = .00024021
INCLINATION    = 97.2848
RA_OF_ASC_NODE = 89.4594
ARG_OF_PERICENTER = 136.7073
MEAN_ANOMALY   = 223.4381

EPHEMERIS_TYPE = 0
CLASSIFICATION_TYPE = U
NORAD_CAT_ID   = 67669
ELEMENT_SET_NO = 999
REV_AT_EPOCH   = 356
BSTAR          = .19859912E-2
MEAN_MOTION_DOT = .30861E-2
MEAN_MOTION_DDOT = 0

CCSDS_OMM_VERS = 2.0
CREATION_DATE  = 
ORIGINATOR     = 

OBJECT_NAME    = STARLINK-36596
OBJECT_ID      = 2026-022Y
CENTER_NAME    = EARTH
REF_FRAME      = TEME
TIME_SYSTEM    = UTC
MEAN_ELEMENT_THEORY = SGP/SGP4

EPOCH          = 2026-02-25T01:20:37.195584
MEAN_MOTION    = 15.75274092
ECCENTRICITY   = .00007737
INCLINATION    = 97.2851
RA_OF_ASC_NODE = 89.4617
ARG_OF_PERICENTER = 90.3591
MEAN_ANOMALY   = 269.7763

EPHEMERIS_TYPE = 0
CLASSIFICATION_TYPE = U
NORAD_CAT_ID   = 67670
ELEMENT_SET_NO = 999
REV_AT_EPOCH   = 356
BSTAR          = .13845904E-2
MEAN_MOTION_DOT = .21238E-2
MEAN_MOTION_DDOT = 0

CCSDS_OMM_VERS = 2.0
CREATION_DATE  = 
ORIGINATOR     = 

OBJECT_NAME    = STARLINK-36297
OBJECT_ID      = 2026-022Z
CENTER_NAME    = EARTH
REF_FRAME      = TEME
TIME_SYSTEM    = UTC
MEAN_ELEMENT_THEORY = SGP/SGP4

EPOCH          = 2026-02-25T01:17:34.018944
MEAN_MOTION    = 15.75267669
ECCENTRICITY   = .00015554
INCLINATION    = 97.2846
RA_OF_ASC_NODE = 89.4650
ARG_OF_PERICENTER = 120.0154
MEAN_ANOMALY   = 240.1265

EPHEMERIS_TYPE = 0
CLASSIFICATION_TYPE = U
NORAD_CAT_ID   = 67671
ELEMENT_SET_NO = 999
REV_AT_EPOCH   = 356
BSTAR          = .13489653E-2
MEAN_MOTION_DOT = .206716E-2
MEAN_MOTION_DDOT = 0

CCSDS_OMM_VERS = 2.0
CREATION_DATE  = 
ORIGINATOR     = 

OBJECT_NAME    = STARLINK-36616
OBJECT_ID      = 2026-022AA
CENTER_NAME    = EARTH
REF_FRAME      = TEME
TIME_SYSTEM    = UTC
MEAN_ELEMENT_THEORY = SGP/SGP4

EPOCH          = 2026-02-25T01:19:36.101280
MEAN_MOTION    = 15.75227226
ECCENTRICITY   = .00009573
INCLINATION    = 97.2846
RA_OF_ASC_NODE = 89.4630
ARG_OF_PERICENTER = 8.1739
MEAN_ANOMALY   = 351.9542

EPHEMERIS_TYPE = 0
CLASSIFICATION_TYPE = U
NORAD_CAT_ID   = 67672
ELEMENT_SET_NO = 999
REV_AT_EPOCH   = 356
BSTAR          = .75007183E-3
MEAN_MOTION_DOT = .113426E-2
MEAN_MOTION_DDOT = 0

